{
    "links": {
        "self": "http://www.neowsapp.com/rest/v1/neo/3557879?api_key=iIulBulltgU6a56xZRHN4H3l9WmuAYTsLGpBGhQ2"
    },
    "id": "3557879",
    "neo_reference_id": "3557879",
    "name": "(2011 DX4)",
    "designation": "2011 DX4",
    "nasa_jpl_url": "http://ssd.jpl.nasa.gov/sbdb.cgi?sstr=3557879",
    "absolute_magnitude_h": 26.4,
    "estimated_diameter": {
        "kilometers": {
            "estimated_diameter_min": 0.0139493823,
            "estimated_diameter_max": 0.0311917671
        },
        "meters": {
            "estimated_diameter_min": 13.9493822934,
            "estimated_diameter_max": 31.1917670523
        },
        "miles": {
            "estimated_diameter_min": 0.0086677416,
            "estimated_diameter_max": 0.0193816595
        },
        "feet": {
            "estimated_diameter_min": 45.7656914036,
            "estimated_diameter_max": 102.3351970157
        }
    },
    "is_potentially_hazardous_asteroid": false,
    "close_approach_data": [
        {
            "close_approach_date": "2011-02-20",
            "close_approach_date_full": "2011-Feb-20 09:12",
            "epoch_date_close_approach": 1298193120000,
            "relative_velocity": {
                "kilometers_per_second": "18.5488710125",
                "kilometers_per_hour": "66775.9356448628",
                "miles_per_hour": "41491.969567776"
            },
            "miss_distance": {
                "astronomical": "0.0203081144",
                "lunar": "7.8998565016",
                "kilometers": "3038050.657956328",
                "miles": "1887757.1423922064"
            },
            "orbiting_body": "Earth"
        }
    ],
    "orbital_data": {
        "orbit_id": "5",
        "orbit_determination_date": "2017-04-06 08:54:22",
        "first_observation_date": "2011-02-25",
        "last_observation_date": "2011-02-25",
        "data_arc_in_days": null,
        "observations_used": 12,
        "orbit_uncertainty": "9",
        "minimum_orbit_intersection": ".00190872",
        "jupiter_tisserand_invariant": "3.581",
        "epoch_osculation": "2455617.5",
        "eccentricity": ".6572739964072569",
        "semi_major_axis": "1.958927283060864",
        "inclination": "1.03539289136295",
        "ascending_node_longitude": "323.7142375840721",
        "orbital_period": "1001.442225350349",
        "perihelion_distance": ".6713753190522402",
        "perihelion_argument": "107.1877488761818",
        "aphelion_distance": "3.246479247069488",
        "perihelion_time": "2455567.275965626508",
        "mean_anomaly": "18.05461355310009",
        "mean_motion": ".3594815466005101",
        "equinox": "J2000",
        "orbit_class": {
            "orbit_class_type": "APO",
            "orbit_class_description": "Near-Earth asteroid orbits which cross the Earth’s orbit similar to that of 1862 Apollo",
            "orbit_class_range": "a (semi-major axis) > 1.0 AU; q (perihelion) < 1.017 AU"
        }
    },
    "is_sentry_object": false
}